H1 CPF 01  gfz 2021 06 27 00  6781 tandemx   
H2 1003001  6202 36605    2021 06 27 00 59 42 2021 07 02 00 00 42   120 1 1  0 0 0
H9
10 0 59393  49662.000000  0     588513.573   2984335.861  -6187742.946
10 0 59393  49782.000000  0    1028114.789   3662479.164  -5750403.553
10 0 59393  49902.000000  0    1461122.788   4269436.286  -5212573.996
10 0 59393  50022.000000  0    1878661.839   4794795.041  -4583564.414
10 0 59393  50142.000000  0    2271939.365   5229689.582  -3874293.781
10 0 59393  50262.000000  0    2632428.442   5566958.536  -3097109.138
10 0 59393  50382.000000  0    2952050.546   5801273.378  -2265577.873
10 0 59393  50502.000000  0    3223354.840   5929233.228  -1394253.994
10 0 59393  50622.000000  0    3439688.556   5949422.665   -498422.184
10 0 59393  50742.000000  0    3595353.602   5862429.854    406175.256
10 0 59393  50862.000000  0    3685745.490   5670824.096   1303621.970
10 0 59393  50982.000000  0    3707471.913   5379093.503   2178115.163
10 0 59393  51102.000000  0    3658446.829   4993545.507   3014252.304
10 0 59393  51222.000000  0    3537957.330   4522169.380   3797311.698
10 0 59393  51342.000000  0    3346702.670   3974465.485   4513515.681
10 0 59393  51462.000000  0    3086803.725   3361249.300   5150278.064
10 0 59393  51582.000000  0    2761779.625   2694429.570   5696425.027
10 0 59393  51702.000000  0    2376499.920   1986770.845   6142386.026
10 0 59393  51822.000000  0    1937110.185   1251644.701   6480357.202
10 0 59393  51942.000000  0    1450930.646    502773.237   6704431.693
10 0 59393  52062.000000  0     926331.727   -246027.123   6810696.110
10 0 59393  52182.000000  0     372589.203   -981099.569   6797295.960
10 0 59393  52302.000000  0    -200280.194  -1689196.490   6664466.319
10 0 59393  52422.000000  0    -781700.134  -2357718.071   6414527.426
10 0 59393  52542.000000  0   -1360729.338  -2974936.775   6051845.239
10 0 59393  52662.000000  0   -1926264.720  -3530203.452   5582759.156
10 0 59393  52782.000000  0   -2467253.507  -4014134.131   5015479.093
10 0 59393  52902.000000  0   -2972911.874  -4418774.496   4359949.195
10 0 59393  53022.000000  0   -3432943.674  -4737736.959   3627677.619
10 0 59393  53142.000000  0   -3837752.781  -4966307.164   2831535.949
10 0 59393  53262.000000  0   -4178644.684  -5101518.113   1985532.866
10 0 59393  53382.000000  0   -4448014.706  -5142190.150   1104564.686
10 0 59393  53502.000000  0   -4639516.853  -5088934.254    204147.127
10 0 59393  53622.000000  0   -4748208.984  -4944119.140   -699865.568
10 0 59393  53742.000000  0   -4770670.522  -4711802.684  -1591569.165
10 0 59393  53862.000000  0   -4705088.499  -4397628.450  -2455298.779
10 0 59393  53982.000000  0   -4551310.077  -4008690.324  -3275910.936
10 0 59393  54102.000000  0   -4310861.304  -3553370.598  -4039052.111
10 0 59393  54222.000000  0   -3986932.562  -3041156.206  -4731409.396
10 0 59393  54342.000000  0   -3584331.445  -2482437.033  -5340938.964
10 0 59393  54462.000000  0   -3109404.605  -1888291.901  -5857067.993
10 0 59393  54582.000000  0   -2569931.698  -1270267.215  -6270868.300
10 0 59393  54702.000000  0   -1974992.898   -640152.381  -6575200.051
10 0 59393  54822.000000  0   -1334812.659     -9756.881  -6764822.911
10 0 59393  54942.000000  0    -660584.932    609306.229  -6836475.135
10 0 59393  55062.000000  0      35718.714   1205828.548  -6788923.823
10 0 59393  55182.000000  0     741555.903   1769203.668  -6622983.568
10 0 59393  55302.000000  0    1444033.587   2289611.328  -6341506.536
10 0 59393  55422.000000  0    2130139.077   2758186.458  -5949338.666
10 0 59393  55542.000000  0    2786977.100   3167170.053  -5453244.774
10 0 59393  55662.000000  0    3402009.218   3510038.395  -4861802.075
10 0 59393  55782.000000  0    3963293.296   3781611.253  -4185264.337
10 0 59393  55902.000000  0    4459718.754   3978135.162  -3435394.564
10 0 59393  56022.000000  0    4881232.079   4097339.418  -2625267.997
10 0 59393  56142.000000  0    5219045.856   4138462.994  -1769048.338
10 0 59393  56262.000000  0    5465827.934   4102251.894   -881741.028
10 0 59393  56382.000000  0    5615864.502   3990925.693     21072.698
10 0 59393  56502.000000  0    5665193.310   3808114.586    923514.572
10 0 59393  56622.000000  0    5611703.574   3558766.890   1809696.627
10 0 59393  56742.000000  0    5455198.031   3249029.022   2664009.849
10 0 59393  56862.000000  0    5197415.938   2886102.573   3471407.967
10 0 59393  56982.000000  0    4842016.326   2478080.644   4217680.005
10 0 59393  57102.000000  0    4394521.314   2033767.461   4889703.607
10 0 59393  57222.000000  0    3862225.977   1562489.139   5475676.228
10 0 59393  57342.000000  0    3254070.751   1073897.159   5965322.921
10 0 59393  57462.000000  0    2580482.323    577768.869   6350070.575
10 0 59393  57582.000000  0    1853189.489     83812.464   6623190.299
10 0 59393  57702.000000  0    1085016.342   -398521.509   6779910.316
10 0 59393  57822.000000  0     289653.435   -860220.679   6817495.681
10 0 59393  57942.000000  0    -518587.369  -1292878.730   6735291.985
10 0 59393  58062.000000  0   -1325030.097  -1688848.253   6534735.367
10 0 59393  58182.000000  0   -2114899.902  -2041375.846   6219327.453
10 0 59393  58302.000000  0   -2873591.385  -2344716.649   5794578.526
10 0 59393  58422.000000  0   -3586940.281  -2594229.908   5267920.094
10 0 59393  58542.000000  0   -4241493.420  -2786452.464   4648580.190
10 0 59393  58662.000000  0   -4824767.618  -2919147.301   3947425.579
10 0 59393  58782.000000  0   -5325493.938  -2991326.195   3176774.241
10 0 59393  58902.000000  0   -5733842.693  -3003246.896   2350181.160
10 0 59393  59022.000000  0   -6041624.864  -2956385.279   1482198.766
10 0 59393  59142.000000  0   -6242462.938  -2853381.793    588114.886
10 0 59393  59262.000000  0   -6331925.908  -2697961.987   -316323.858
10 0 59393  59382.000000  0   -6307626.943  -2494835.316  -1215198.080
10 0 59393  59502.000000  0   -6169278.374  -2249573.058  -2092706.043
10 0 59393  59622.000000  0   -5918703.069  -1968469.761  -2933448.739
10 0 59393  59742.000000  0   -5559804.659  -1658391.984  -3722704.654
10 0 59393  59862.000000  0   -5098496.715  -1326618.233  -4446689.014
10 0 59393  59982.000000  0   -4542594.086   -980674.194  -5092792.332
10 0 59393  60102.000000  0   -3901668.768   -628166.796  -5649794.680
10 0 59393  60222.000000  0   -3186874.407   -276621.523  -6108051.175
10 0 59393  60342.000000  0   -2410744.939     66673.649  -6459647.354
10 0 59393  60462.000000  0   -1586971.289    394814.174  -6698524.130
10 0 59393  60582.000000  0    -730159.806    701412.172  -6820571.239
10 0 59393  60702.000000  0     144422.353    980716.881  -6823689.630
10 0 59393  60822.000000  0    1021111.773   1227718.834  -6707823.216
10 0 59393  60942.000000  0    1884122.551   1438237.185  -6474962.596
10 0 59393  61062.000000  0    2717825.162   1608990.122  -6129114.700
10 0 59393  61182.000000  0    3507025.298   1737645.612  -5676240.467
10 0 59393  61302.000000  0    4237237.500   1822852.061  -5124161.663
10 0 59393  61422.000000  0    4894952.443   1864249.467  -4482438.205
10 0 59393  61542.000000  0    5467892.416   1862459.962  -3762213.097
10 0 59393  61662.000000  0    5945247.972   1819057.217  -2976027.892
10 0 59393  61782.000000  0    6317892.428   1736515.537  -2137611.657
10 0 59393  61902.000000  0    6578568.797   1618139.821  -1261643.609
10 0 59393  62022.000000  0    6722042.116   1467976.595   -363494.473
10 0 59393  62142.000000  0    6745213.459   1290708.127    541048.766
10 0 59393  62262.000000  0    6647190.337   1091533.249   1436066.935
10 0 59393  62382.000000  0    6429316.335    876037.162   2305796.927
10 0 59393  62502.000000  0    6095153.267    650052.517   3134919.435
10 0 59393  62622.000000  0    5650418.888    419516.825   3908836.043
10 0 59393  62742.000000  0    5102880.526    190329.389   4613931.829
10 0 59393  62862.000000  0    4462210.698    -31787.424   5237816.188
10 0 59393  62982.000000  0    3739806.031   -241421.949   5769541.282
10 0 59393  63102.000000  0    2948573.982   -433596.245   6199789.723
10 0 59393  63222.000000  0    2102695.188   -603876.317   6521032.161
10 0 59393  63342.000000  0    1217364.792   -748468.573   6727653.673
10 0 59393  63462.000000  0     308515.612   -864300.511   6816047.186
10 0 59393  63582.000000  0    -607470.105   -949083.511   6784671.255
10 0 59393  63702.000000  0   -1514055.167  -1001357.577   6634074.340
10 0 59393  63822.000000  0   -2394844.601  -1020516.443   6366885.137
10 0 59393  63942.000000  0   -3233880.377  -1006812.802   5987769.753
10 0 59393  64062.000000  0   -4015931.965   -961343.978   5503357.171
10 0 59393  64182.000000  0   -4726777.840   -886019.190   4922129.984
10 0 59393  64302.000000  0   -5353471.331   -783507.718   4254281.064
10 0 59393  64422.000000  0   -5884584.703   -657169.011   3511538.155
10 0 59393  64542.000000  0   -6310425.995   -510966.185   2706959.985
10 0 59393  64662.000000  0   -6623226.245   -349364.743   1854707.503
10 0 59393  64782.000000  0   -6817291.587   -177218.547    969790.643
10 0 59393  64902.000000  0   -6889113.611       353.280     67796.782
10 0 59393  65022.000000  0   -6837435.951    178096.251   -835392.474
10 0 59393  65142.000000  0   -6663274.858    350753.906  -1723890.274
10 0 59393  65262.000000  0   -6369893.915    513200.422  -2582090.912
10 0 59393  65382.000000  0   -5962736.645    660569.741  -3394950.503
10 0 59393  65502.000000  0   -5449313.198    788378.155  -4148255.730
10 0 59393  65622.000000  0   -4839048.283    892636.917  -4828871.233
10 0 59393  65742.000000  0   -4143095.099    969952.023  -5424964.048
10 0 59393  65862.000000  0   -3374120.494   1017609.321  -5926200.802
10 0 59393  65982.000000  0   -2546066.379   1033642.782  -6323916.151
10 0 59393  66102.000000  0   -1673893.373   1016885.574  -6611250.705
99
